[Satellite]
VERSION=1.1
NAME=MOLNIYA 1-75
NICKNAME=MOLNIYA 1-75
TLE1=1 19807U 89014A   15053.60379955  .00001272  00000-0  10792-1 0  9997
TLE2=2 19807  63.4671 228.9448 6979862 282.9614  12.9040  2.00247001190518
